OBJECT_NAME,OBJECT_ID,EPOCH,MEAN_MOTION,ECCENTRICITY,INCLINATION,RA_OF_ASC_NODE,ARG_OF_PERICENTER,MEAN_ANOMALY,EPHEMERIS_TYPE,CLASSIFICATION_TYPE,NORAD_CAT_ID,ELEMENT_SET_NO,REV_AT_EPOCH,BSTAR,MEAN_MOTION_DOT,MEAN_MOTION_DDOT
STARLINK-36267,2025-304G,2026-07-14T11:15:12.767328,14.98344725,.00037278,69.9997,214.8531,265.2965,94.7768,0,U,67198,999,3284,.25318042E-3,.293E-4,0
STARLINK-36268,2025-304H,2026-07-14T11:27:27.760032,14.98334742,.0003921,69.9991,214.8804,268.6264,91.4445,0,U,67199,999,3286,.17057E-3,.1943E-4,0
STARLINK-36270,2025-304J,2026-07-14T10:51:23.918688,14.98332715,.0004232,69.9987,214.8007,267.7755,92.2920,0,U,67200,999,3287,.2195366E-3,.2528E-4,0
STARLINK-36262,2025-304K,2026-07-14T11:39:15.585120,14.98354324,.00042907,69.9996,214.9128,267.5528,92.5140,0,U,67201,999,3287,.60969665E-3,.7194E-4,0
STARLINK-36263,2025-304L,2026-07-14T11:21:12.904992,14.98334830,.00034691,69.9994,214.8673,268.9374,91.1388,0,U,67202,999,3287,.13616823E-3,.1532E-4,0
STARLINK-36224,2025-304M,2026-07-14T11:09:12.441312,14.98341472,.00039165,69.9994,214.8301,266.9872,93.0839,0,U,67203,999,3287,.19587704E-3,.2246E-4,0
STARLINK-36185,2025-304N,2026-07-14T10:45:09.500832,14.98341673,.00038322,69.9998,214.7773,265.4283,94.6438,0,U,67204,999,3287,.20450772E-3,.2349E-4,0
STARLINK-36197,2025-304P,2026-07-14T12:03:15.023808,14.98337695,.00038382,69.9990,214.5661,264.6213,95.4508,0,U,67205,999,3285,.17438645E-3,.1989E-4,0
STARLINK-36056,2025-304Q,2026-07-14T11:39:29.038464,14.98343084,.00041064,69.9992,214.9077,266.1496,93.9194,0,U,67206,999,3284,.1770008E-3,.202E-4,0
STARLINK-36225,2025-304R,2026-07-14T11:15:26.644896,14.98343224,.00041302,69.9993,214.8477,265.1097,94.9591,0,U,67207,999,3287,.21283847E-3,.2448E-4,0
STARLINK-36265,2025-304S,2026-07-14T11:33:14.147136,14.98323257,.0003233,69.9995,214.8988,270.1745,89.9043,0,U,67208,999,3287,.23627E-3,.2727E-4,0
STARLINK-36226,2025-304T,2026-07-14T11:51:16.321824,14.98328098,.00040349,69.9992,214.9423,268.2517,91.8180,0,U,67209,999,3287,.16485188E-3,.1874E-4,0
STARLINK-36173,2025-304U,2026-07-14T11:03:12.484224,14.98311690,.00031925,69.9997,214.8227,268.5630,91.5164,0,U,67210,999,3287,-.30745644E-3,-.3758E-4,0
STARLINK-36280,2025-304V,2026-07-14T10:51:09.789696,14.98336503,.00038398,69.9993,214.7932,265.5325,94.5395,0,U,67211,999,3287,.94018897E-4,.1029E-4,0
STARLINK-36213,2025-304W,2026-07-14T12:15:16.327296,14.98345111,.000393,69.9991,214.5943,271.2575,88.8134,0,U,67212,999,3288,.17233E-3,.1965E-4,0
STARLINK-36199,2025-304X,2026-07-14T11:57:14.328000,14.98334366,.0003913,69.9990,214.5515,265.2842,94.7870,0,U,67213,999,3288,.10661E-3,.1179E-4,0
STARLINK-36203,2025-304Y,2026-07-14T11:45:29.505312,14.98335689,.0003871,69.9990,214.9224,265.1726,94.8992,0,U,67214,999,3287,.12558917E-3,.1406E-4,0
STARLINK-36221,2025-304Z,2026-07-14T11:33:29.422656,14.98320982,.00027534,69.9998,214.8921,268.1871,91.8972,0,U,67215,999,3287,.17844821E-3,.2036E-4,0
STARLINK-36212,2025-304AA,2026-07-14T09:44:04.763616,15.00010088,.00089616,69.9994,215.0284,295.9181,64.1055,0,U,67216,999,3286,.31959566E-1,.423297E-2,0
STARLINK-36216,2025-304AB,2026-07-14T11:09:26.981568,14.98328355,.00037606,69.9997,214.8338,258.2931,101.7806,0,U,67217,999,3286,-.70807939E-4,-.938E-5,0
STARLINK-36211,2025-304AC,2026-07-14T10:57:23.626080,14.98326949,.00033601,70.0000,214.8039,264.2612,95.8164,0,U,67218,999,3284,-.3745913E-3,-.4559E-4,0
STARLINK-36490,2026-002A,2026-07-14T10:01:04.699200,15.27583188,.0003932,43.0061,329.2901,295.5865,64.4581,0,U,67305,999,3052,.36577255E-3,.9818E-4,0
STARLINK-36488,2026-002B,2026-07-14T15:46:28.021728,15.27606941,.0001138,43.0002,328.5117,255.5464,104.5261,0,U,67306,999,3049,.46592E-3,.12591E-3,0
STARLINK-36481,2026-002C,2026-07-14T17:00:16.456320,15.27577873,.0002195,42.9976,328.0406,333.2518,26.8220,0,U,67307,999,3050,.33057E-3,.8845E-4,0
STARLINK-36449,2026-002D,2026-07-14T16:49:09.532128,15.27578428,.0002302,43.0040,327.9750,284.7542,75.3054,0,U,67308,999,3056,.22826E-3,.6024E-4,0
STARLINK-36482,2026-002E,2026-07-14T08:52:49.200960,15.27590498,.00020512,42.9971,329.7823,196.1890,163.8897,0,U,67309,999,3045,.33863713E-3,.9071E-4,0
STARLINK-36491,2026-002F,2026-07-14T10:58:26.161536,15.27577130,.000149,42.9997,329.5919,265.2112,94.8570,0,U,67310,999,3046,.25098068E-3,.665E-4,0
STARLINK-36495,2026-002G,2026-07-14T08:38:01.455648,15.27585589,.0002288,43.0066,329.7180,289.1881,70.8723,0,U,67311,999,3061,.2892741E-3,.7708E-4,0
STARLINK-36485,2026-002H,2026-07-14T16:08:26.730240,15.27592288,.0001603,43.0041,327.7595,276.1876,83.8793,0,U,67312,999,3050,.47836E-3,.12929E-3,0
STARLINK-36445,2026-002J,2026-07-14T09:35:22.635456,15.27596531,.00016189,42.9966,330.0123,160.8952,199.1961,0,U,67313,999,3061,.53323856E-3,.14448E-3,0
STARLINK-36476,2026-002K,2026-07-14T10:38:04.790400,15.27584886,.00012977,42.9994,329.4751,234.4253,125.6478,0,U,67314,999,3045,.34658514E-3,.9289E-4,0
STARLINK-36463,2026-002L,2026-07-14T10:08:28.542912,15.27583004,.00010748,43.0009,329.3207,207.7237,152.3557,0,U,67315,999,3052,.33823828E-3,.9058E-4,0
STARLINK-36461,2026-002M,2026-07-14T10:02:54.924000,15.27595263,.00031957,42.9941,329.2829,153.3559,206.7457,0,U,67316,999,3062,.48946849E-3,.13238E-3,0
STARLINK-36450,2026-002N,2026-07-14T15:53:51.759168,15.27581576,.0000328,42.9949,328.5449,304.9215,55.1606,0,U,67317,999,3065,.24827E-3,.6577E-4,0
STARLINK-36498,2026-002P,2026-07-14T17:02:07.107072,15.27587782,.0000788,42.9978,328.0454,317.6538,42.4252,0,U,67318,999,3056,.45743E-3,.1235E-3,0
STARLINK-36470,2026-002Q,2026-07-14T09:16:52.051584,15.27600724,.0001617,43.0022,329.9218,270.1459,89.9207,0,U,67319,999,3051,.39309753E-3,.10577E-3,0
STARLINK-36500,2026-002R,2026-07-14T09:42:47.136672,15.27585509,.00041532,43.0062,330.0585,294.9729,65.0691,0,U,67320,999,3051,.44331701E-3,.1196E-3,0
STARLINK-36462,2026-002S,2026-07-14T15:42:45.508032,15.27583227,.0000876,42.9958,328.4872,158.6141,201.4748,0,U,67321,999,3049,.36657E-3,.984E-4,0
STARLINK-36434,2026-002T,2026-07-14T09:31:40.697184,15.27568928,.00021984,43.0014,329.9975,272.7610,87.2990,0,U,67322,999,3045,.48921389E-3,.1322E-3,0
STARLINK-36497,2026-002U,2026-07-14T16:51:00.150912,15.27585526,.0002597,43.0031,327.9799,274.1966,85.8588,0,U,67323,999,3056,.43912E-3,.11843E-3,0
STARLINK-36471,2026-002V,2026-07-14T16:30:38.923200,15.27585610,.0001895,43.0044,327.8728,265.1246,94.9390,0,U,67324,999,3050,.41843E-3,.11272E-3,0
STARLINK-36473,2026-002W,2026-07-14T10:19:34.532256,15.27584792,.00017843,43.0000,329.3774,273.4855,86.5792,0,U,67325,999,3062,.32343791E-3,.865E-4,0
STARLINK-36430,2026-002X,2026-07-14T09:48:07.180416,15.27582899,.00013913,43.0010,329.2088,249.5175,110.5528,0,U,67326,999,3062,.34090208E-3,.9131E-4,0
STARLINK-36501,2026-002Y,2026-07-14T08:23:13.146144,15.27580732,.00054535,43.0123,329.6403,299.7488,60.2821,0,U,67327,999,3045,.29776277E-3,.7942E-4,0
STARLINK-36489,2026-002Z,2026-07-14T17:09:31.182336,15.27580017,.0001427,42.9986,328.0833,309.0232,51.0493,0,U,67328,999,3066,.32269E-3,.8628E-4,0
STARLINK-36496,2026-002AA,2026-07-14T10:30:40.665888,15.27573950,.00013711,43.0008,329.4344,255.1315,104.9385,0,U,67329,999,3044,.47962757E-3,.12957E-3,0
STARLINK-36483,2026-002AB,2026-07-14T15:44:36.379104,15.27580759,.0001325,42.9994,328.4973,274.4912,85.5788,0,U,67330,999,3065,.24566E-3,.6504E-4,0
STARLINK-36494,2026-002AC,2026-07-14T16:52:51.684672,15.27575974,.0001421,43.0021,327.9881,254.9672,105.1023,0,U,67331,999,3066,.30226E-3,.8063E-4,0
STARLINK-36492,2026-002AD,2026-07-14T09:39:05.769504,15.27599382,.00016669,43.0012,330.0293,271.3644,88.7017,0,U,67332,999,3061,.54363416E-3,.14736E-3,0
STARLINK-36427,2026-002AE,2026-07-14T16:56:33.215136,15.27582841,.0002539,43.0021,327.9977,273.2132,86.8429,0,U,67333,999,3056,.43761E-3,.118E-3,0
STARLINK-35343,2026-003A,2026-07-14T11:25:14.506176,15.27591941,.00016275,42.9982,231.0994,274.6435,85.4230,0,U,67334,999,2821,.32077583E-3,.8578E-4,0
STARLINK-36486,2026-003B,2026-07-14T03:03:01.379520,15.27581279,.00011519,42.9962,232.7744,265.5926,94.4794,0,U,67335,999,2816,.2629456E-3,.6981E-4,0
STARLINK-36480,2026-003C,2026-07-14T03:45:33.554304,15.27588007,.0000946,42.9988,233.0036,269.6303,90.4440,0,U,67336,999,2816,.34061996E-3,.9125E-4,0
STARLINK-36410,2026-003D,2026-07-14T12:02:14.714016,15.27587686,.00026415,43.0024,231.2979,282.7574,77.2982,0,U,67337,999,2821,.24295108E-3,.6431E-4,0
STARLINK-36413,2026-003E,2026-07-14T20:00:01.999008,15.27603940,.0001714,43.0014,229.3215,282.5672,146.6659,0,U,67338,999,590,-.79658E-3,-.22134E-3,0
STARLINK-36451,2026-003F,2026-07-14T02:05:51.113760,15.27581613,.00025063,43.0052,233.3483,294.2267,65.8323,0,U,67339,999,2815,.24185734E-3,.6399E-4,0
STARLINK-36339,2026-003G,2026-07-14T11:19:41.224224,15.27588291,.00016296,42.9980,231.0673,273.7347,86.3319,0,U,67340,999,2821,.46743869E-3,.12626E-3,0
STARLINK-36453,2026-003H,2026-07-14T11:14:08.129760,15.27585741,.000139,43.0000,231.0374,266.3422,93.7271,0,U,67341,999,2821,.2188E-3,.5765E-4,0
STARLINK-36432,2026-003J,2026-07-14T09:08:29.688288,15.27568247,.00013268,42.9989,231.2393,255.7718,104.2986,0,U,67342,999,2820,-.11621567E-3,-.3457E-4,0
STARLINK-36458,2026-003K,2026-07-14T11:04:53.013216,15.27580721,.00014438,43.0000,230.9877,270.2658,89.8028,0,U,67343,999,2821,.15074864E-3,.3888E-4,0
STARLINK-36422,2026-003L,2026-07-14T09:14:06.283680,15.27565223,.00014742,42.9972,231.2668,283.9956,76.0732,0,U,67344,999,2820,.39596227E-3,.10645E-3,0
STARLINK-35676,2026-003M,2026-07-14T10:59:20.056992,15.27576983,.00014503,43.0008,230.9577,277.4870,82.5816,0,U,67345,999,2821,.29820316E-3,.7952E-4,0
STARLINK-36472,2026-003N,2026-07-14T02:22:30.288288,15.27593380,.00013358,42.9988,233.4282,207.7668,152.3113,0,U,67346,999,2814,.2991831E-3,.7983E-4,0
STARLINK-36420,2026-003P,2026-07-14T09:58:29.279424,15.27583858,.00010836,42.9970,231.4991,182.8343,177.2502,0,U,67347,999,2820,.44002418E-3,.11867E-3,0
